CCSDS_OMM_VERS = 2.0
CREATION_DATE  = 
ORIGINATOR     = 

OBJECT_NAME    = ALOS (DAICHI)
OBJECT_ID      = 2006-002A
CENTER_NAME    = EARTH
REF_FRAME      = TEME
TIME_SYSTEM    = UTC
MEAN_ELEMENT_THEORY = SGP/SGP4

EPOCH          = 2025-12-17T17:37:14.152512
MEAN_MOTION    = 14.69501788
ECCENTRICITY   = .00013612
INCLINATION    = 98.1098
RA_OF_ASC_NODE = 303.1864
ARG_OF_PERICENTER = 113.5739
MEAN_ANOMALY   = 246.5610

EPHEMERIS_TYPE = 0
CLASSIFICATION_TYPE = U
NORAD_CAT_ID   = 28931
ELEMENT_SET_NO = 999
REV_AT_EPOCH   = 6144
BSTAR          = .19545051E-3
MEAN_MOTION_DOT = .111E-4
MEAN_MOTION_DDOT = 0

CCSDS_OMM_VERS = 2.0
CREATION_DATE  = 
ORIGINATOR     = 

OBJECT_NAME    = H-2A R/B
OBJECT_ID      = 2006-002B
CENTER_NAME    = EARTH
REF_FRAME      = TEME
TIME_SYSTEM    = UTC
MEAN_ELEMENT_THEORY = SGP/SGP4

EPOCH          = 2026-01-04T15:22:44.212800
MEAN_MOTION    = 15.15113159
ECCENTRICITY   = .00547795
INCLINATION    = 98.2332
RA_OF_ASC_NODE = 146.2704
ARG_OF_PERICENTER = 99.1470
MEAN_ANOMALY   = 261.5963

EPHEMERIS_TYPE = 0
CLASSIFICATION_TYPE = U
NORAD_CAT_ID   = 28932
ELEMENT_SET_NO = 999
REV_AT_EPOCH   = 8473
BSTAR          = .56839008E-3
MEAN_MOTION_DOT = .10985E-3
MEAN_MOTION_DDOT = 0

CCSDS_OMM_VERS = 2.0
CREATION_DATE  = 
ORIGINATOR     = 

OBJECT_NAME    = RESURS-DK 1
OBJECT_ID      = 2006-021A
CENTER_NAME    = EARTH
REF_FRAME      = TEME
TIME_SYSTEM    = UTC
MEAN_ELEMENT_THEORY = SGP/SGP4

EPOCH          = 2026-01-04T12:26:45.705984
MEAN_MOTION    = 15.12320500
ECCENTRICITY   = .00069143
INCLINATION    = 69.9342
RA_OF_ASC_NODE = 42.9627
ARG_OF_PERICENTER = 240.0277
MEAN_ANOMALY   = 120.0203

EPHEMERIS_TYPE = 0
CLASSIFICATION_TYPE = U
NORAD_CAT_ID   = 29228
ELEMENT_SET_NO = 999
REV_AT_EPOCH   = 7782
BSTAR          = .23239096E-3
MEAN_MOTION_DOT = .3931E-4
MEAN_MOTION_DDOT = 0

CCSDS_OMM_VERS = 2.0
CREATION_DATE  = 
ORIGINATOR     = 

OBJECT_NAME    = CZ-4B R/B
OBJECT_ID      = 2006-046C
CENTER_NAME    = EARTH
REF_FRAME      = TEME
TIME_SYSTEM    = UTC
MEAN_ELEMENT_THEORY = SGP/SGP4

EPOCH          = 2026-01-04T14:34:04.001664
MEAN_MOTION    = 15.16150712
ECCENTRICITY   = .00349589
INCLINATION    = 97.5696
RA_OF_ASC_NODE = 49.6830
ARG_OF_PERICENTER = 128.1773
MEAN_ANOMALY   = 232.2617

EPHEMERIS_TYPE = 0
CLASSIFICATION_TYPE = U
NORAD_CAT_ID   = 29507
ELEMENT_SET_NO = 999
REV_AT_EPOCH   = 5033
BSTAR          = .36251678E-3
MEAN_MOTION_DOT = .7033E-4
MEAN_MOTION_DDOT = 0

CCSDS_OMM_VERS = 2.0
CREATION_DATE  = 
ORIGINATOR     = 

OBJECT_NAME    = CZ-2C R/B
OBJECT_ID      = 2007-010B
CENTER_NAME    = EARTH
REF_FRAME      = TEME
TIME_SYSTEM    = UTC
MEAN_ELEMENT_THEORY = SGP/SGP4

EPOCH          = 2026-01-04T08:00:50.040000
MEAN_MOTION    = 14.20220888
ECCENTRICITY   = .00598983
INCLINATION    = 98.3974
RA_OF_ASC_NODE = 120.8480
ARG_OF_PERICENTER = 120.9141
MEAN_ANOMALY   = 239.7944

EPHEMERIS_TYPE = 0
CLASSIFICATION_TYPE = U
NORAD_CAT_ID   = 31114
ELEMENT_SET_NO = 999
REV_AT_EPOCH   = 97058
BSTAR          = .13400957E-3
MEAN_MOTION_DOT = .251E-5
MEAN_MOTION_DDOT = 0

CCSDS_OMM_VERS = 2.0
CREATION_DATE  = 
ORIGINATOR     = 

OBJECT_NAME    = COSMO-SKYMED 1
OBJECT_ID      = 2007-023A
CENTER_NAME    = EARTH
REF_FRAME      = TEME
TIME_SYSTEM    = UTC
MEAN_ELEMENT_THEORY = SGP/SGP4

EPOCH          = 2026-01-04T15:58:15.553056
MEAN_MOTION    = 14.95974905
ECCENTRICITY   = .00014649
INCLINATION    = 97.8829
RA_OF_ASC_NODE = 195.2178
ARG_OF_PERICENTER = 87.7097
MEAN_ANOMALY   = 272.4292

EPHEMERIS_TYPE = 0
CLASSIFICATION_TYPE = U
NORAD_CAT_ID   = 31598
ELEMENT_SET_NO = 999
REV_AT_EPOCH   = 533
BSTAR          = .4992601E-3
MEAN_MOTION_DOT = .5539E-4
MEAN_MOTION_DDOT = 0

CCSDS_OMM_VERS = 2.0
CREATION_DATE  = 
ORIGINATOR     = 

OBJECT_NAME    = COSMOS 2428
OBJECT_ID      = 2007-029A
CENTER_NAME    = EARTH
REF_FRAME      = TEME
TIME_SYSTEM    = UTC
MEAN_ELEMENT_THEORY = SGP/SGP4

EPOCH          = 2026-01-04T14:32:37.492800
MEAN_MOTION    = 14.12902164
ECCENTRICITY   = .00049947
INCLINATION    = 70.9382
RA_OF_ASC_NODE = 337.8694
ARG_OF_PERICENTER = 351.8176
MEAN_ANOMALY   = 8.2863

EPHEMERIS_TYPE = 0
CLASSIFICATION_TYPE = U
NORAD_CAT_ID   = 31792
ELEMENT_SET_NO = 999
REV_AT_EPOCH   = 95504
BSTAR          = .19938753E-3
MEAN_MOTION_DOT = .323E-5
MEAN_MOTION_DDOT = 0

CCSDS_OMM_VERS = 2.0
CREATION_DATE  = 
ORIGINATOR     = 

OBJECT_NAME    = SL-16 R/B
OBJECT_ID      = 2007-029B
CENTER_NAME    = EARTH
REF_FRAME      = TEME
TIME_SYSTEM    = UTC
MEAN_ELEMENT_THEORY = SGP/SGP4

EPOCH          = 2026-01-04T14:25:45.926400
MEAN_MOTION    = 14.14825550
ECCENTRICITY   = .00021379
INCLINATION    = 70.9774
RA_OF_ASC_NODE = 307.1008
ARG_OF_PERICENTER = 271.3852
MEAN_ANOMALY   = 261.1897

EPHEMERIS_TYPE = 0
CLASSIFICATION_TYPE = U
NORAD_CAT_ID   = 31793
ELEMENT_SET_NO = 999
REV_AT_EPOCH   = 95630
BSTAR          = .76299424E-4
MEAN_MOTION_DOT = .99E-6
MEAN_MOTION_DDOT = 0

CCSDS_OMM_VERS = 2.0
CREATION_DATE  = 
ORIGINATOR     = 

OBJECT_NAME    = KORONAS-FOTON
OBJECT_ID      = 2009-003A
CENTER_NAME    = EARTH
REF_FRAME      = TEME
TIME_SYSTEM    = UTC
MEAN_ELEMENT_THEORY = SGP/SGP4

EPOCH          = 2026-01-04T09:51:08.359488
MEAN_MOTION    = 15.41694490
ECCENTRICITY   = .00124524
INCLINATION    = 82.4314
RA_OF_ASC_NODE = 342.6045
ARG_OF_PERICENTER = 38.0402
MEAN_ANOMALY   = 322.1721

EPHEMERIS_TYPE = 0
CLASSIFICATION_TYPE = U
NORAD_CAT_ID   = 33504
ELEMENT_SET_NO = 999
REV_AT_EPOCH   = 93583
BSTAR          = .28813508E-3
MEAN_MOTION_DOT = .12227E-3
MEAN_MOTION_DDOT = 0

CCSDS_OMM_VERS = 2.0
CREATION_DATE  = 
ORIGINATOR     = 

OBJECT_NAME    = CZ-2C R/B
OBJECT_ID      = 2011-030B
CENTER_NAME    = EARTH
REF_FRAME      = TEME
TIME_SYSTEM    = UTC
MEAN_ELEMENT_THEORY = SGP/SGP4

EPOCH          = 2026-01-04T10:34:35.327424
MEAN_MOTION    = 14.80983933
ECCENTRICITY   = .00521986
INCLINATION    = 97.8443
RA_OF_ASC_NODE = 323.0493
ARG_OF_PERICENTER = 197.9274
MEAN_ANOMALY   = 274.6396

EPHEMERIS_TYPE = 0
CLASSIFICATION_TYPE = U
NORAD_CAT_ID   = 37731
ELEMENT_SET_NO = 999
REV_AT_EPOCH   = 78058
BSTAR          = .25777398E-3
MEAN_MOTION_DOT = .1988E-4
MEAN_MOTION_DDOT = 0

CCSDS_OMM_VERS = 2.0
CREATION_DATE  = 
ORIGINATOR     = 

OBJECT_NAME    = H-2A R/B
OBJECT_ID      = 2012-025E
CENTER_NAME    = EARTH
REF_FRAME      = TEME
TIME_SYSTEM    = UTC
MEAN_ELEMENT_THEORY = SGP/SGP4

EPOCH          = 2026-01-04T14:30:04.725504
MEAN_MOTION    = 14.94617867
ECCENTRICITY   = .00452272
INCLINATION    = 98.4631
RA_OF_ASC_NODE = 326.6031
ARG_OF_PERICENTER = 160.8171
MEAN_ANOMALY   = 199.4763

EPHEMERIS_TYPE = 0
CLASSIFICATION_TYPE = U
NORAD_CAT_ID   = 38341
ELEMENT_SET_NO = 999
REV_AT_EPOCH   = 73864
BSTAR          = .33385401E-3
MEAN_MOTION_DOT = .362E-4
MEAN_MOTION_DDOT = 0

CCSDS_OMM_VERS = 2.0
CREATION_DATE  = 
ORIGINATOR     = 

OBJECT_NAME    = SHIJIAN-16 (SJ-16)
OBJECT_ID      = 2013-057A
CENTER_NAME    = EARTH
REF_FRAME      = TEME
TIME_SYSTEM    = UTC
MEAN_ELEMENT_THEORY = SGP/SGP4

EPOCH          = 2026-01-04T14:26:14.636256
MEAN_MOTION    = 14.92098311
ECCENTRICITY   = .00180249
INCLINATION    = 74.9750
RA_OF_ASC_NODE = 306.3927
ARG_OF_PERICENTER = 267.1716
MEAN_ANOMALY   = 92.7409

EPHEMERIS_TYPE = 0
CLASSIFICATION_TYPE = U
NORAD_CAT_ID   = 39358
ELEMENT_SET_NO = 999
REV_AT_EPOCH   = 66194
BSTAR          = .42942342E-3
MEAN_MOTION_DOT = .4351E-4
MEAN_MOTION_DDOT = 0

