ALOS (DAICHI)           
1 28931U 06002A   25351.73419158  .00001110  00000+0  19545-3 0  9994
2 28931  98.1098 303.1864 0001361 113.5739 246.5610 14.69501788 61443
H-2A R/B                
1 28932U 06002B   26004.64078950  .00010985  00000+0  56839-3 0  9999
2 28932  98.2332 146.2704 0054779  99.1470 261.5963 15.15113159 84735
RESURS-DK 1             
1 29228U 06021A   26004.51858456  .00003931  00000+0  23239-3 0  9993
2 29228  69.9342  42.9627 0006914 240.0277 120.0203 15.12320500 77821
CZ-4B R/B               
1 29507U 06046C   26004.60699076  .00007033  00000+0  36252-3 0  9997
2 29507  97.5696  49.6830 0034958 128.1773 232.2617 15.16150712 50338
CZ-2C R/B               
1 31114U 07010B   26004.33391250  .00000251  00000+0  13401-3 0  9995
2 31114  98.3974 120.8480 0059898 120.9141 239.7944 14.20220888970584
COSMO-SKYMED 1          
1 31598U 07023A   26004.66545779  .00005539  00000+0  49926-3 0  9993
2 31598  97.8829 195.2178 0001464  87.7097 272.4292 14.95974905  5339
COSMOS 2428             
1 31792U 07029A   26004.60598950  .00000323  00000+0  19939-3 0  9995
2 31792  70.9382 337.8694 0004994 351.8176   8.2863 14.12902164955040
SL-16 R/B               
1 31793U 07029B   26004.60122600  .00000099  00000+0  76299-4 0  9994
2 31793  70.9774 307.1008 0002137 271.3852 261.1897 14.14825550956301
KORONAS-FOTON           
1 33504U 09003A   26004.41051342  .00012227  00000+0  28814-3 0  9998
2 33504  82.4314 342.6045 0012452  38.0402 322.1721 15.41694490935833
CZ-2C R/B               
1 37731U 11030B   26004.44068666  .00001988  00000+0  25777-3 0  9994
2 37731  97.8443 323.0493 0052198 197.9274 274.6396 14.80983933780589
H-2A R/B                
1 38341U 12025E   26004.60422136  .00003620  00000+0  33385-3 0  9990
2 38341  98.4631 326.6031 0045227 160.8171 199.4763 14.94617867738647
SHIJIAN-16 (SJ-16)      
1 39358U 13057A   26004.60155829  .00004351  00000+0  42942-3 0  9998
2 39358  74.9750 306.3927 0018024 267.1716  92.7409 14.92098311661942
